{
  "type": "FeatureCollection",
  "features": [
    {
      "type": "Feature",
      "properties": {
        "norad_id": 36036,
        "name": "SMOS",
        "group": "resource",
        "lat": 51.95434086127936,
        "lon": 173.2477370059414,
        "alt_km": 753.8101035655918,
        "timestamp": "2025-12-25T07:41:09.379713+00:00",
        "meta_object_name": "SMOS",
        "meta_object_id": "2009-059A",
        "meta_epoch": "2025-12-24T18:05:54.245184",
        "meta_mean_motion": 14.39751659,
        "meta_eccentricity": 0.00010502,
        "meta_inclination": 98.4381,
        "meta_ra_of_asc_node": 183.6247,
        "meta_arg_of_pericenter": 83.5251,
        "meta_mean_anomaly": 276.6057,
        "meta_ephemeris_type": 0,
        "meta_classification_type": "U",
        "meta_norad_cat_id": 36036,
        "meta_element_set_no": 999,
        "meta_rev_at_epoch": 84835,
        "meta_bstar": 0.00013650047,
        "meta_mean_motion_dot": 3.84e-06,
        "meta_mean_motion_ddot": 0,
        "tle_line1": "1 36036U 09059A   25358.75410006  .00000384  00000+0  13650-3 0  9999",
        "tle_line2": "2 36036  98.4381 183.6247 0001050  83.5251 276.6057 14.39751659848355"
      },
      "geometry": {
        "type": "Point",
        "coordinates": [
          173.2477370059414,
          51.95434086127936
        ]
      }
    },
    {
      "type": "Feature",
      "properties": {
        "norad_id": 36110,
        "name": "YAOGAN-7",
        "group": "resource",
        "lat": 24.156521448866883,
        "lon": 64.66169229716814,
        "alt_km": 633.8159341575802,
        "timestamp": "2025-12-25T07:41:09.379724+00:00",
        "meta_object_name": "YAOGAN-7",
        "meta_object_id": "2009-069A",
        "meta_epoch": "2025-12-24T22:51:25.180128",
        "meta_mean_motion": 14.77749725,
        "meta_eccentricity": 0.00234505,
        "meta_inclination": 98.0294,
        "meta_ra_of_asc_node": 240.6654,
        "meta_arg_of_pericenter": 239.6546,
        "meta_mean_anomaly": 120.2345,
        "meta_ephemeris_type": 0,
        "meta_classification_type": "U",
        "meta_norad_cat_id": 36110,
        "meta_element_set_no": 999,
        "meta_rev_at_epoch": 86389,
        "meta_bstar": 0.00010028525,
        "meta_mean_motion_dot": 6.69e-06,
        "meta_mean_motion_ddot": 0,
        "tle_line1": "1 36110U 09069A   25358.95237477  .00000669  00000+0  10029-3 0  9997",
        "tle_line2": "2 36110  98.0294 240.6654 0023450 239.6546 120.2345 14.77749725863895"
      },
      "geometry": {
        "type": "Point",
        "coordinates": [
          64.66169229716814,
          24.156521448866883
        ]
      }
    },
    {
      "type": "Feature",
      "properties": {
        "norad_id": 36605,
        "name": "TANDEM-X",
        "group": "resource",
        "lat": 65.29972406850078,
        "lon": -158.96518222750498,
        "alt_km": 500.9199043942381,
        "timestamp": "2025-12-25T07:41:09.379734+00:00",
        "meta_object_name": "TANDEM-X",
        "meta_object_id": "2010-030A",
        "meta_epoch": "2025-12-24T13:47:55.228992",
        "meta_mean_motion": 15.19151393,
        "meta_eccentricity": 0.00017737,
        "meta_inclination": 97.4454,
        "meta_ra_of_asc_node": 3.7821,
        "meta_arg_of_pericenter": 94.5594,
        "meta_mean_anomaly": 265.5843,
        "meta_ephemeris_type": 0,
        "meta_classification_type": "U",
        "meta_norad_cat_id": 36605,
        "meta_element_set_no": 999,
        "meta_rev_at_epoch": 86013,
        "meta_bstar": 4.5827e-05,
        "meta_mean_motion_dot": 8.95e-06,
        "meta_mean_motion_ddot": 0,
        "tle_line1": "1 36605U 10030A   25358.57494478  .00000895  00000+0  45827-4 0  9996",
        "tle_line2": "2 36605  97.4454   3.7821 0001773  94.5594 265.5843 15.19151393860139"
      },
      "geometry": {
        "type": "Point",
        "coordinates": [
          -158.96518222750498,
          65.29972406850078
        ]
      }
    },
    {
      "type": "Feature",
      "properties": {
        "norad_id": 36795,
        "name": "CARTOSAT-2B",
        "group": "resource",
        "lat": 51.34664818300515,
        "lon": -122.21333323396456,
        "alt_km": 628.3417865609035,
        "timestamp": "2025-12-25T07:41:09.379744+00:00",
        "meta_object_name": "CARTOSAT-2B",
        "meta_object_id": "2010-035A",
        "meta_epoch": "2025-12-24T22:59:26.033280",
        "meta_mean_motion": 14.78741102,
        "meta_eccentricity": 0.00125699,
        "meta_inclination": 97.7832,
        "meta_ra_of_asc_node": 47.5897,
        "meta_arg_of_pericenter": 40.4874,
        "meta_mean_anomaly": 319.7271,
        "meta_ephemeris_type": 0,
        "meta_classification_type": "U",
        "meta_norad_cat_id": 36795,
        "meta_element_set_no": 999,
        "meta_rev_at_epoch": 83410,
        "meta_bstar": 8.0122023e-05,
        "meta_mean_motion_dot": 5.39e-06,
        "meta_mean_motion_ddot": 0,
        "tle_line1": "1 36795U 10035A   25358.95794020  .00000539  00000+0  80122-4 0  9991",
        "tle_line2": "2 36795  97.7832  47.5897 0012569  40.4874 319.7271 14.78741102834109"
      },
      "geometry": {
        "type": "Point",
        "coordinates": [
          -122.21333323396456,
          51.34664818300515
        ]
      }
    },
    {
      "type": "Feature",
      "properties": {
        "norad_id": 36834,
        "name": "YAOGAN-10",
        "group": "resource",
        "lat": 63.99970464256906,
        "lon": -144.38457749659068,
        "alt_km": 607.6013480935944,
        "timestamp": "2025-12-25T07:41:09.379755+00:00",
        "meta_object_name": "YAOGAN-10",
        "meta_object_id": "2010-038A",
        "meta_epoch": "2025-12-24T23:28:25.790592",
        "meta_mean_motion": 14.84655604,
        "meta_eccentricity": 0.0001435,
        "meta_inclination": 97.9132,
        "meta_ra_of_asc_node": 18.7066,
        "meta_arg_of_pericenter": 80.8732,
        "meta_mean_anomaly": 6.2104,
        "meta_ephemeris_type": 0,
        "meta_classification_type": "U",
        "meta_norad_cat_id": 36834,
        "meta_element_set_no": 999,
        "meta_rev_at_epoch": 83135,
        "meta_bstar": 0.00039403796,
        "meta_mean_motion_dot": 3.279e-05,
        "meta_mean_motion_ddot": 0,
        "tle_line1": "1 36834U 10038A   25358.97807628  .00003279  00000+0  39404-3 0  9999",
        "tle_line2": "2 36834  97.9132  18.7066 0001435  80.8732   6.2104 14.84655604831352"
      },
      "geometry": {
        "type": "Point",
        "coordinates": [
          -144.38457749659068,
          63.99970464256906
        ]
      }
    },
    {
      "type": "Feature",
      "properties": {
        "norad_id": 37216,
        "name": "COSMO-SKYMED 4",
        "group": "resource",
        "lat": -72.34082857189772,
        "lon": -153.75696002525495,
        "alt_km": 630.6853218880806,
        "timestamp": "2025-12-25T07:41:09.379765+00:00",
        "meta_object_name": "COSMO-SKYMED 4",
        "meta_object_id": "2010-060A",
        "meta_epoch": "2025-12-24T23:55:07.835808",
        "meta_mean_motion": 14.82159655,
        "meta_eccentricity": 0.00013703,
        "meta_inclination": 97.8803,
        "meta_ra_of_asc_node": 180.1352,
        "meta_arg_of_pericenter": 81.4862,
        "meta_mean_anomaly": 278.6507,
        "meta_ephemeris_type": 0,
        "meta_classification_type": "U",
        "meta_norad_cat_id": 37216,
        "meta_element_set_no": 999,
        "meta_rev_at_epoch": 81876,
        "meta_bstar": 0.00012041216,
        "meta_mean_motion_dot": 9.07e-06,
        "meta_mean_motion_ddot": 0,
        "tle_line1": "1 37216U 10060A   25358.99661847  .00000907  00000+0  12041-3 0  9995",
        "tle_line2": "2 37216  97.8803 180.1352 0001370  81.4862 278.6507 14.82159655818767"
      },
      "geometry": {
        "type": "Point",
        "coordinates": [
          -153.75696002525495,
          -72.34082857189772
        ]
      }
    },
    {
      "type": "Feature",
      "properties": {
        "norad_id": 37387,
        "name": "RESOURCESAT-2",
        "group": "resource",
        "lat": 32.586244827744196,
        "lon": 57.14136044906693,
        "alt_km": 814.1367729693848,
        "timestamp": "2025-12-25T07:41:09.379776+00:00",
        "meta_object_name": "RESOURCESAT-2",
        "meta_object_id": "2011-015A",
        "meta_epoch": "2025-12-24T21:23:46.189248",
        "meta_mean_motion": 14.21601897,
        "meta_eccentricity": 0.00058264,
        "meta_inclination": 98.786,
        "meta_ra_of_asc_node": 62.3879,
        "meta_arg_of_pericenter": 9.3699,
        "meta_mean_anomaly": 350.7586,
        "meta_ephemeris_type": 0,
        "meta_classification_type": "U",
        "meta_norad_cat_id": 37387,
        "meta_element_set_no": 999,
        "meta_rev_at_epoch": 76141,
        "meta_bstar": 8.3663355e-05,
        "meta_mean_motion_dot": 1.39e-06,
        "meta_mean_motion_ddot": 0,
        "tle_line1": "1 37387U 11015A   25358.89150682  .00000139  00000+0  83663-4 0  9990",
        "tle_line2": "2 37387  98.7860  62.3879 0005826   9.3699 350.7586 14.21601897761412"
      },
      "geometry": {
        "type": "Point",
        "coordinates": [
          57.14136044906693,
          32.586244827744196
        ]
      }
    }
  ]
}